COSMOS 2503             
1 40420U 15009A   26068.69626972  .00002817  00000+0  19590-3 0  9998
2 40420  97.8437 123.7175 0015321 225.7450 134.2520 15.06275973603958
STARLINK-6239           
1 56423U 23061BB  26067.56304732  .00000631  00000+0  61796-4 0  9995
2 56423  43.0027 177.7115 0001169 275.8336  84.2373 15.02537229156889
